{
  "type": "FeatureCollection",
  "features": [
    {
      "type": "Feature",
      "properties": {
        "norad_id": 66669,
        "name": "TRANSPORTER-15D",
        "group": "last-30-days",
        "lat": 82.15853172603013,
        "lon": -38.657352444386916,
        "alt_km": 485.39515965315786,
        "timestamp": "2025-12-24T07:45:04.931226+00:00",
        "meta_object_name": "TRANSPORTER-15D",
        "meta_object_id": "2025-276D",
        "meta_epoch": "2025-12-21T02:39:18.210816",
        "meta_mean_motion": 15.34134881,
        "meta_eccentricity": 0.00748198,
        "meta_inclination": 97.4314,
        "meta_ra_of_asc_node": 66.7079,
        "meta_arg_of_pericenter": 232.3102,
        "meta_mean_anomaly": 127.1341,
        "meta_ephemeris_type": 0,
        "meta_classification_type": "U",
        "meta_norad_cat_id": 66669,
        "meta_element_set_no": 999,
        "meta_rev_at_epoch": 339,
        "meta_bstar": 0.0027830351,
        "meta_mean_motion_dot": 0.00101698,
        "meta_mean_motion_ddot": 0,
        "tle_line1": "1 66669U 25276D   25355.11062744  .00101698  00000+0  27830-2 0  9996",
        "tle_line2": "2 66669  97.4314  66.7079 0074819 232.3102 127.1341 15.34134881  3392"
      },
      "geometry": {
        "type": "Point",
        "coordinates": [
          -38.657352444386916,
          82.15853172603013
        ]
      }
    },
    {
      "type": "Feature",
      "properties": {
        "norad_id": 66670,
        "name": "HUNITY",
        "group": "last-30-days",
        "lat": 5.665612115194819,
        "lon": -109.42884672055297,
        "alt_km": 526.3273283290973,
        "timestamp": "2025-12-24T07:45:04.931239+00:00",
        "meta_object_name": "HUNITY",
        "meta_object_id": "2025-276E",
        "meta_epoch": "2025-12-23T13:32:41.599104",
        "meta_mean_motion": 15.14778724,
        "meta_eccentricity": 0.00045159,
        "meta_inclination": 97.4308,
        "meta_ra_of_asc_node": 69.0882,
        "meta_arg_of_pericenter": 49.7951,
        "meta_mean_anomaly": 310.3676,
        "meta_ephemeris_type": 0,
        "meta_classification_type": "U",
        "meta_norad_cat_id": 66670,
        "meta_element_set_no": 999,
        "meta_rev_at_epoch": 376,
        "meta_bstar": -0.0059587969,
        "meta_mean_motion_dot": -0.00108931,
        "meta_mean_motion_ddot": 0,
        "tle_line1": "1 66670U 25276E   25357.56437036 -.00108931  00000+0 -59588-2 0  9993",
        "tle_line2": "2 66670  97.4308  69.0882 0004515  49.7951 310.3676 15.14778724  3769"
      },
      "geometry": {
        "type": "Point",
        "coordinates": [
          -109.42884672055297,
          5.665612115194819
        ]
      }
    },
    {
      "type": "Feature",
      "properties": {
        "norad_id": 66671,
        "name": "TRANSPORTER-15F",
        "group": "last-30-days",
        "lat": -18.78617720696127,
        "lon": -112.67735307769492,
        "alt_km": 517.2384153565154,
        "timestamp": "2025-12-24T07:45:04.931249+00:00",
        "meta_object_name": "TRANSPORTER-15F",
        "meta_object_id": "2025-276F",
        "meta_epoch": "2025-12-23T21:22:46.612992",
        "meta_mean_motion": 15.17134043,
        "meta_eccentricity": 0.00051839,
        "meta_inclination": 97.4418,
        "meta_ra_of_asc_node": 69.4466,
        "meta_arg_of_pericenter": 248.1825,
        "meta_mean_anomaly": 111.8857,
        "meta_ephemeris_type": 0,
        "meta_classification_type": "U",
        "meta_norad_cat_id": 66671,
        "meta_element_set_no": 999,
        "meta_rev_at_epoch": 381,
        "meta_bstar": 0.00065237981,
        "meta_mean_motion_dot": 0.0001289,
        "meta_mean_motion_ddot": 0,
        "tle_line1": "1 66671U 25276F   25357.89081728  .00012890  00000+0  65238-3 0  9999",
        "tle_line2": "2 66671  97.4418  69.4466 0005183 248.1825 111.8857 15.17134043  3815"
      },
      "geometry": {
        "type": "Point",
        "coordinates": [
          -112.67735307769492,
          -18.78617720696127
        ]
      }
    },
    {
      "type": "Feature",
      "properties": {
        "norad_id": 66672,
        "name": "TRANSPORTER-15G",
        "group": "last-30-days",
        "lat": 9.817238867314737,
        "lon": -108.85411241066177,
        "alt_km": 516.7176670213021,
        "timestamp": "2025-12-24T07:45:04.931259+00:00",
        "meta_object_name": "TRANSPORTER-15G",
        "meta_object_id": "2025-276G",
        "meta_epoch": "2025-12-23T21:30:10.733184",
        "meta_mean_motion": 15.16631844,
        "meta_eccentricity": 0.00055252,
        "meta_inclination": 97.439,
        "meta_ra_of_asc_node": 69.4315,
        "meta_arg_of_pericenter": 246.0847,
        "meta_mean_anomaly": 113.9808,
        "meta_ephemeris_type": 0,
        "meta_classification_type": "U",
        "meta_norad_cat_id": 66672,
        "meta_element_set_no": 999,
        "meta_rev_at_epoch": 381,
        "meta_bstar": 0.00030790241,
        "meta_mean_motion_dot": 5.957e-05,
        "meta_mean_motion_ddot": 0,
        "tle_line1": "1 66672U 25276G   25357.89595756  .00005957  00000+0  30790-3 0  9992",
        "tle_line2": "2 66672  97.4390  69.4315 0005525 246.0847 113.9808 15.16631844  3818"
      },
      "geometry": {
        "type": "Point",
        "coordinates": [
          -108.85411241066177,
          9.817238867314737
        ]
      }
    },
    {
      "type": "Feature",
      "properties": {
        "norad_id": 66673,
        "name": "TRANSPORTER-15H",
        "group": "last-30-days",
        "lat": -13.634522709216544,
        "lon": -111.96598464545562,
        "alt_km": 517.594941620363,
        "timestamp": "2025-12-24T07:45:04.931272+00:00",
        "meta_object_name": "TRANSPORTER-15H",
        "meta_object_id": "2025-276H",
        "meta_epoch": "2025-12-23T21:24:09.522432",
        "meta_mean_motion": 15.17174921,
        "meta_eccentricity": 0.00059154,
        "meta_inclination": 97.4358,
        "meta_ra_of_asc_node": 69.4263,
        "meta_arg_of_pericenter": 264.9703,
        "meta_mean_anomaly": 95.0856,
        "meta_ephemeris_type": 0,
        "meta_classification_type": "U",
        "meta_norad_cat_id": 66673,
        "meta_element_set_no": 999,
        "meta_rev_at_epoch": 381,
        "meta_bstar": 0.0010206775,
        "meta_mean_motion_dot": 0.00020251,
        "meta_mean_motion_ddot": 0,
        "tle_line1": "1 66673U 25276H   25357.89177688  .00020251  00000+0  10207-2 0  9997",
        "tle_line2": "2 66673  97.4358  69.4263 0005915 264.9703  95.0856 15.17174921  3810"
      },
      "geometry": {
        "type": "Point",
        "coordinates": [
          -111.96598464545562,
          -13.634522709216544
        ]
      }
    },
    {
      "type": "Feature",
      "properties": {
        "norad_id": 66674,
        "name": "TRANSPORTER-15J",
        "group": "last-30-days",
        "lat": 33.477996301443596,
        "lon": -105.21065582586755,
        "alt_km": 531.4811299775338,
        "timestamp": "2025-12-24T07:45:04.931282+00:00",
        "meta_object_name": "TRANSPORTER-15J",
        "meta_object_id": "2025-276J",
        "meta_epoch": "2025-12-21T10:53:16.478880",
        "meta_mean_motion": 15.15191397,
        "meta_eccentricity": 0.00065005,
        "meta_inclination": 97.4372,
        "meta_ra_of_asc_node": 67.0325,
        "meta_arg_of_pericenter": 333.1103,
        "meta_mean_anomaly": 26.9792,
        "meta_ephemeris_type": 0,
        "meta_classification_type": "U",
        "meta_norad_cat_id": 66674,
        "meta_element_set_no": 999,
        "meta_rev_at_epoch": 344,
        "meta_bstar": -0.028180021,
        "meta_mean_motion_dot": -0.00494676,
        "meta_mean_motion_ddot": 0,
        "tle_line1": "1 66674U 25276J   25355.45366295 -.00494676  00000+0 -28180-1 0  9998",
        "tle_line2": "2 66674  97.4372  67.0325 0006500 333.1103  26.9792 15.15191397  3449"
      },
      "geometry": {
        "type": "Point",
        "coordinates": [
          -105.21065582586755,
          33.477996301443596
        ]
      }
    },
    {
      "type": "Feature",
      "properties": {
        "norad_id": 66675,
        "name": "TRANSPORTER-15K",
        "group": "last-30-days",
        "lat": -12.84563910204893,
        "lon": -111.84962001448169,
        "alt_km": 517.6161176824144,
        "timestamp": "2025-12-24T07:45:04.931292+00:00",
        "meta_object_name": "TRANSPORTER-15K",
        "meta_object_id": "2025-276K",
        "meta_epoch": "2025-12-23T21:24:18.881280",
        "meta_mean_motion": 15.17030389,
        "meta_eccentricity": 0.00051262,
        "meta_inclination": 97.4382,
        "meta_ra_of_asc_node": 69.4345,
        "meta_arg_of_pericenter": 254.4755,
        "meta_mean_anomaly": 105.5912,
        "meta_ephemeris_type": 0,
        "meta_classification_type": "U",
        "meta_norad_cat_id": 66675,
        "meta_element_set_no": 999,
        "meta_rev_at_epoch": 381,
        "meta_bstar": 0.00068592483,
        "meta_mean_motion_dot": 0.00013517,
        "meta_mean_motion_ddot": 0,
        "tle_line1": "1 66675U 25276K   25357.89188520  .00013517  00000+0  68592-3 0  9994",
        "tle_line2": "2 66675  97.4382  69.4345 0005126 254.4755 105.5912 15.17030389  3814"
      },
      "geometry": {
        "type": "Point",
        "coordinates": [
          -111.84962001448169,
          -12.84563910204893
        ]
      }
    }
  ]
}